[{"OBJECT_NAME":"STARLINK-34540","OBJECT_ID":"2025-211F","EPOCH":"2026-03-09T17:04:06.544704","MEAN_MOTION":15.05647668,"ECCENTRICITY":0.00019532,"INCLINATION":97.6023,"RA_OF_ASC_NODE":114.0635,"ARG_OF_PERICENTER":112.0865,"MEAN_ANOMALY":248.0569,"EPHEMERIS_TYPE":0,"CLASSIFICATION_TYPE":"U","NORAD_CAT_ID":65657,"ELEMENT_SET_NO":999,"REV_AT_EPOCH":2704,"BSTAR":7.5632757e-5,"MEAN_MOTION_DOT":1.031e-5,"MEAN_MOTION_DDOT":0},{"OBJECT_NAME":"SL-8 DEB","OBJECT_ID":"1977-119E","EPOCH":"2026-03-08T21:50:26.826144","MEAN_MOTION":15.02521055,"ECCENTRICITY":0.00060399,"INCLINATION":74.0225,"RA_OF_ASC_NODE":39.6743,"ARG_OF_PERICENTER":252.2066,"MEAN_ANOMALY":138.7099,"EPHEMERIS_TYPE":0,"CLASSIFICATION_TYPE":"U","NORAD_CAT_ID":18512,"ELEMENT_SET_NO":999,"REV_AT_EPOCH":19339,"BSTAR":0.0013899008,"MEAN_MOTION_DOT":0.00018486,"MEAN_MOTION_DDOT":0}]
